STARLINK-4119           
1 53026U 22076AS  26068.33061059 -.00000788  00000+0 -31460-4 0  9994
2 53026  53.2168  85.6282 0001388  96.2514 263.8637 15.08835292202935
LEMUR-2-AHMED-ASRAR     
1 60576U 24149DN  26068.73265438  .00013045  00000+0  79773-3 0  9992
2 60576  97.7021 152.9847 0001633  18.5035 341.6253 15.10376432 85541
